start=new Date('2023-02-22T00:00:00.000Z').valueOf();
sats=[{"TLE_LINE1":"1 53970U 22125G   23052.89631950  .00031801  00000-0  20054-2 0  9995","GP_ID":"226334961","MEAN_MOTION_DOT":"0.00031801","TIME_SYSTEM":"UTC","PERIAPSIS":"538.875","REF_FRAME":"TEME","APOAPSIS":"540.412","DECAY_DATE":null,"PERIOD":"95.435","RCS_SIZE":"LARGE","TLE_LINE2":"2 53970  53.2174 170.5481 0001111 107.8950 252.2163 15.08873459 21541","MEAN_MOTION":"15.08873459","ARG_OF_PERICENTER":"107.8950","FILE":"3821329","MEAN_ANOMALY":"252.2163","OBJECT_NAME":"STARLINK-4567","BSTAR":"0.00200540000000","SEMIMAJOR_AXIS":"6917.778","CLASSIFICATION_TYPE":"U","OBJECT_ID":"2022-125G","ECCENTRICITY":"0.00011110","COUNTRY_CODE":"US","MEAN_ELEMENT_THEORY":"SGP4","EPHEMERIS_TYPE":"0","RA_OF_ASC_NODE":"170.5481","EPOCH":"2023-02-21T21:30:42.004800","INCLINATION":"53.2174","OBJECT_TYPE":"PAYLOAD","NORAD_CAT_ID":"53970","REV_AT_EPOCH":"2154","MEAN_MOTION_DDOT":"0.0000000000000","LAUNCH_DATE":"2022-10-05","ELEMENT_SET_NO":"999","CENTER_NAME":"EARTH","SITE":"AFWTR"},{"MEAN_MOTION_DDOT":"0.0000000000000","REV_AT_EPOCH":"2144","NORAD_CAT_ID":"53971","OBJECT_TYPE":"PAYLOAD","SITE":"AFWTR","CENTER_NAME":"EARTH","ELEMENT_SET_NO":"999","LAUNCH_DATE":"2022-10-05","EPHEMERIS_TYPE":"0","MEAN_ELEMENT_THEORY":"SGP4","COUNTRY_CODE":"US","INCLINATION":"53.2161","EPOCH":"2023-02-21T15:46:47.472960","RA_OF_ASC_NODE":"176.1854","CLASSIFICATION_TYPE":"U","SEMIMAJOR_AXIS":"6917.792","BSTAR":"0.00218630000000","OBJECT_NAME":"STARLINK-4639","MEAN_ANOMALY":"286.0271","FILE":"3821329","ECCENTRICITY":"0.00011050","OBJECT_ID":"2022-125H","DECAY_DATE":null,"REF_FRAME":"TEME","PERIAPSIS":"538.893","APOAPSIS":"540.422","TIME_SYSTEM":"UTC","MEAN_MOTION_DOT":"0.00034706","GP_ID":"226333709","TLE_LINE1":"1 53971U 22125H   23052.65749390  .00034706  00000-0  21863-2 0  9994","ARG_OF_PERICENTER":"74.0843","MEAN_MOTION":"15.08868828","TLE_LINE2":"2 53971  53.2161 176.1854 0001105  74.0843 286.0271 15.08868828 21441","RCS_SIZE":"LARGE","PERIOD":"95.436"},{"MEAN_ELEMENT_THEORY":"SGP4","EPHEMERIS_TYPE":"0","COUNTRY_CODE":"US","INCLINATION":"53.2175","RA_OF_ASC_NODE":"170.7079","EPOCH":"2023-02-21T19:23:27.477888","REV_AT_EPOCH":"2153","MEAN_MOTION_DDOT":"0.0000000000000","OBJECT_TYPE":"PAYLOAD","NORAD_CAT_ID":"53972","CENTER_NAME":"EARTH","SITE":"AFWTR","ELEMENT_SET_NO":"999","LAUNCH_DATE":"2022-10-05","TIME_SYSTEM":"UTC","DECAY_DATE":null,"REF_FRAME":"TEME","PERIAPSIS":"538.695","APOAPSIS":"540.640","TLE_LINE1":"1 53972U 22125J   23052.80795692  .00001606  00000-0  11887-3 0  9997","MEAN_MOTION_DOT":"0.00001606","GP_ID":"226333959","TLE_LINE2":"2 53972  53.2175 170.7079 0001406  87.7155 272.3999 15.08865553 21534","ARG_OF_PERICENTER":"87.7155","MEAN_MOTION":"15.08865553","PERIOD":"95.436","RCS_SIZE":"LARGE","CLASSIFICATION_TYPE":"U","MEAN_ANOMALY":"272.3999","FILE":"3821329","SEMIMAJOR_AXIS":"6917.802","BSTAR":"0.00011887000000","OBJECT_NAME":"STARLINK-5157","OBJECT_ID":"2022-125J","ECCENTRICITY":"0.00014060"},{"ELEMENT_SET_NO":"999","LAUNCH_DATE":"2022-10-05","CENTER_NAME":"EARTH","SITE":"AFWTR","OBJECT_TYPE":"PAYLOAD","NORAD_CAT_ID":"53973","REV_AT_EPOCH":"2145","MEAN_MOTION_DDOT":"0.0000000000000","RA_OF_ASC_NODE":"175.8424","EPOCH":"2023-02-21T17:11:33.778752","INCLINATION":"53.2173","COUNTRY_CODE":"US","MEAN_ELEMENT_THEORY":"SGP4","EPHEMERIS_TYPE":"0","OBJECT_ID":"2022-125K","ECCENTRICITY":"0.00017360","FILE":"3821329","MEAN_ANOMALY":"269.9157","SEMIMAJOR_AXIS":"6917.851","OBJECT_NAME":"STARLINK-5156","BSTAR":"0.00016099000000","CLASSIFICATION_TYPE":"U","PERIOD":"95.437","RCS_SIZE":"LARGE","TLE_LINE2":"2 53973  53.2173 175.8424 0001736  90.2034 269.9157 15.08849645 21457","ARG_OF_PERICENTER":"90.2034","MEAN_MOTION":"15.08849645","TLE_LINE1":"1 53973U 22125K   23052.71636318  .00002276  00000-0  16099-3 0  9991","MEAN_MOTION_DOT":"0.00002276","GP_ID":"226334711","TIME_SYSTEM":"UTC","DECAY_DATE":null,"PERIAPSIS":"538.515","REF_FRAME":"TEME","APOAPSIS":"540.917"},{"ECCENTRICITY":"0.00013390","OBJECT_ID":"2022-125L","SEMIMAJOR_AXIS":"6917.762","BSTAR":"0.00262010000000","OBJECT_NAME":"STARLINK-5159","MEAN_ANOMALY":"262.7867","FILE":"3821329","CLASSIFICATION_TYPE":"U","RCS_SIZE":"LARGE","PERIOD":"95.435","ARG_OF_PERICENTER":"97.3277","MEAN_MOTION":"15.08878667","TLE_LINE2":"2 53974  53.2182 155.4038 0001339  97.3277 262.7867 15.08878667 21746","MEAN_MOTION_DOT":"0.00041702","GP_ID":"226335461","TLE_LINE1":"1 53974U 22125L   23052.75128572  .00041702  00000-0  26201-2 0  9996","DECAY_DATE":null,"APOAPSIS":"540.553","PERIAPSIS":"538.701","REF_FRAME":"TEME","TIME_SYSTEM":"UTC","ELEMENT_SET_NO":"999","LAUNCH_DATE":"2022-10-05","SITE":"AFWTR","CENTER_NAME":"EARTH","NORAD_CAT_ID":"53974","OBJECT_TYPE":"PAYLOAD","MEAN_MOTION_DDOT":"0.0000000000000","REV_AT_EPOCH":"2174","EPOCH":"2023-02-21T18:01:51.086208","RA_OF_ASC_NODE":"155.4038","INCLINATION":"53.2182","COUNTRY_CODE":"US","EPHEMERIS_TYPE":"0","MEAN_ELEMENT_THEORY":"SGP4"},{"NORAD_CAT_ID":"53975","OBJECT_TYPE":"PAYLOAD","MEAN_MOTION_DDOT":"0.0000000000000","REV_AT_EPOCH":"2152","LAUNCH_DATE":"2022-10-05","ELEMENT_SET_NO":"999","SITE":"AFWTR","CENTER_NAME":"EARTH","COUNTRY_CODE":"US","EPHEMERIS_TYPE":"0","MEAN_ELEMENT_THEORY":"SGP4","EPOCH":"2023-02-21T17:56:53.814048","RA_OF_ASC_NODE":"171.0447","INCLINATION":"53.2170","BSTAR":"0.00019028000000","OBJECT_NAME":"STARLINK-5137","SEMIMAJOR_AXIS":"6912.821","FILE":"3821329","MEAN_ANOMALY":"267.3145","CLASSIFICATION_TYPE":"U","ECCENTRICITY":"0.00010230","OBJECT_ID":"2022-125M","GP_ID":"226334209","MEAN_MOTION_DOT":"0.00002878","TLE_LINE1":"1 53975U 22125M   23052.74784507  .00002878  00000-0  19028-3 0  9993","PERIAPSIS":"533.979","REF_FRAME":"TEME","APOAPSIS":"535.393","DECAY_DATE":null,"TIME_SYSTEM":"UTC","RCS_SIZE":"LARGE","PERIOD":"95.333","MEAN_MOTION":"15.10496778","ARG_OF_PERICENTER":"92.7965","TLE_LINE2":"2 53975  53.2170 171.0447 0001023  92.7965 267.3145 15.10496778 21523"},{"MEAN_ELEMENT_THEORY":"SGP4","EPHEMERIS_TYPE":"0","COUNTRY_CODE":"US","INCLINATION":"53.2179","RA_OF_ASC_NODE":"155.5129","EPOCH":"2023-02-21T18:24:27.507456","REV_AT_EPOCH":"2174","MEAN_MOTION_DDOT":"0.0000000000000","OBJECT_TYPE":"PAYLOAD","NORAD_CAT_ID":"53976","CENTER_NAME":"EARTH","SITE":"AFWTR","ELEMENT_SET_NO":"999","LAUNCH_DATE":"2022-10-05","TIME_SYSTEM":"UTC","DECAY_DATE":null,"PERIAPSIS":"538.808","REF_FRAME":"TEME","APOAPSIS":"540.465","TLE_LINE1":"1 53976U 22125N   23052.76698504  .00031517  00000-0  19876-2 0  9999","MEAN_MOTION_DOT":"0.00031517","GP_ID":"226334459","TLE_LINE2":"2 53976  53.2179 155.5129 0001198  95.2514 264.8615 15.08875609 21747","ARG_OF_PERICENTER":"95.2514","MEAN_MOTION":"15.08875609","PERIOD":"95.435","RCS_SIZE":"LARGE","CLASSIFICATION_TYPE":"U","MEAN_ANOMALY":"264.8615","FILE":"3821329","SEMIMAJOR_AXIS":"6917.772","BSTAR":"0.00198760000000","OBJECT_NAME":"STARLINK-5134","OBJECT_ID":"2022-125N","ECCENTRICITY":"0.00011980"},{"CLASSIFICATION_TYPE":"U","SEMIMAJOR_AXIS":"6918.445","BSTAR":"0.00294630000000","OBJECT_NAME":"STARLINK-5094","MEAN_ANOMALY":"265.7525","FILE":"3821329","ECCENTRICITY":"0.00013200","OBJECT_ID":"2022-125P","DECAY_DATE":null,"PERIAPSIS":"539.397","APOAPSIS":"541.224","REF_FRAME":"TEME","TIME_SYSTEM":"UTC","MEAN_MOTION_DOT":"0.00046676","GP_ID":"226335211","TLE_LINE1":"1 53977U 22125P   23052.73710285  .00046676  00000-0  29463-2 0  9993","ARG_OF_PERICENTER":"94.3617","MEAN_MOTION":"15.08655167","TLE_LINE2":"2 53977  53.2159 170.9768 0001320  94.3617 265.7525 15.08655167 21528","RCS_SIZE":"LARGE","PERIOD":"95.449","MEAN_MOTION_DDOT":"0.0000000000000","REV_AT_EPOCH":"2152","NORAD_CAT_ID":"53977","OBJECT_TYPE":"PAYLOAD","SITE":"AFWTR","CENTER_NAME":"EARTH","ELEMENT_SET_NO":"999","LAUNCH_DATE":"2022-10-05","EPHEMERIS_TYPE":"0","MEAN_ELEMENT_THEORY":"SGP4","COUNTRY_CODE":"US","INCLINATION":"53.2159","EPOCH":"2023-02-21T17:41:25.686240","RA_OF_ASC_NODE":"170.9768"},{"LAUNCH_DATE":"2022-10-05","ELEMENT_SET_NO":"999","SITE":"AFWTR","CENTER_NAME":"EARTH","NORAD_CAT_ID":"53978","OBJECT_TYPE":"PAYLOAD","MEAN_MOTION_DDOT":"0.0000000000000","REV_AT_EPOCH":"2152","EPOCH":"2023-02-21T17:10:56.706240","RA_OF_ASC_NODE":"170.8522","INCLINATION":"53.2153","COUNTRY_CODE":"US","EPHEMERIS_TYPE":"0","MEAN_ELEMENT_THEORY":"SGP4","ECCENTRICITY":"0.00010960","OBJECT_ID":"2022-125Q","OBJECT_NAME":"STARLINK-5148","BSTAR":"0.00022816000000","SEMIMAJOR_AXIS":"6917.816","FILE":"3821329","MEAN_ANOMALY":"273.7108","CLASSIFICATION_TYPE":"U","RCS_SIZE":"LARGE","PERIOD":"95.436","MEAN_MOTION":"15.08861089","ARG_OF_PERICENTER":"86.4010","TLE_LINE2":"2 53978  53.2153 170.8522 0001096  86.4010 273.7108 15.08861089 21527","GP_ID":"226334962","MEAN_MOTION_DOT":"0.00003347","TLE_LINE1":"1 53978U 22125Q   23052.71593410  .00003347  00000-0  22816-3 0  9995","PERIAPSIS":"538.923","REF_FRAME":"TEME","APOAPSIS":"540.439","DECAY_DATE":null,"TIME_SYSTEM":"UTC"},{"BSTAR":"0.00015765000000","OBJECT_NAME":"STARLINK-5123","SEMIMAJOR_AXIS":"6917.856","FILE":"3819986","MEAN_ANOMALY":"270.1359","CLASSIFICATION_TYPE":"U","ECCENTRICITY":"0.00010070","OBJECT_ID":"2022-125R","GP_ID":"226279570","MEAN_MOTION_DOT":"0.00002223","TLE_LINE1":"1 53979U 22125R   23052.59082856  .00002223  00000-0  15765-3 0  9996","PERIAPSIS":"539.025","REF_FRAME":"TEME","APOAPSIS":"540.418","DECAY_DATE":null,"TIME_SYSTEM":"UTC","RCS_SIZE":"LARGE","PERIOD":"95.437","MEAN_MOTION":"15.08847822","ARG_OF_PERICENTER":"89.9748","TLE_LINE2":"2 53979  53.2165 171.4894 0001007  89.9748 270.1359 15.08847822 21571","NORAD_CAT_ID":"53979","OBJECT_TYPE":"PAYLOAD","MEAN_MOTION_DDOT":"0.0000000000000","REV_AT_EPOCH":"2157","LAUNCH_DATE":"2022-10-05","ELEMENT_SET_NO":"999","SITE":"AFWTR","CENTER_NAME":"EARTH","COUNTRY_CODE":"US","EPHEMERIS_TYPE":"0","MEAN_ELEMENT_THEORY":"SGP4","EPOCH":"2023-02-21T14:10:47.587584","RA_OF_ASC_NODE":"171.4894","INCLINATION":"53.2165"}];
